PANDORA
1 67395U 80229J   26103.69922454  .00000000  00000-0  37770-3 0    04
2 67395  97.8056 103.3638 0004897   0.7374  89.9012 14.87996929    03
